{
  "norad_id": 57998,
  "name": "STARLINK-30531",
  "history": [
    {
      "epoch": "2026-03-28T20:00:01.999872Z",
      "apogee_km": 484.1474211069162,
      "perigee_km": 482.0185217741773,
      "latitude_deg": 39.460659238415325,
      "longitude_deg": -106.05472528085315,
      "height_km": 486.44064149944194,
      "semi_major_axis_km": 6861.219971440547,
      "eccentricity": 0.00015514,
      "inclination_deg": 43.0033,
      "raan_deg": 318.8261,
      "arg_perigee_deg": 267.6512,
      "mean_anomaly_deg": 160.6075,
      "mean_motion_rev_day": 15.27568687
    },
    {
      "epoch": "2026-03-29T00:24:39.991392Z",
      "apogee_km": 484.45232270209453,
      "perigee_km": 481.65981712263965,
      "latitude_deg": -4.9717582643318554e-06,
      "longitude_deg": 125.19069933029347,
      "height_km": 483.1083869832404,
      "semi_major_axis_km": 6861.193069912367,
      "eccentricity": 0.0002035,
      "inclination_deg": 43.0038,
      "raan_deg": 317.7866,
      "arg_perigee_deg": 258.651,
      "mean_anomaly_deg": 101.4113,
      "mean_motion_rev_day": 15.27577671
    },
    {
      "epoch": "2026-03-29T23:57:00.765792Z",
      "apogee_km": 484.3919730501766,
      "perigee_km": 481.72571234570387,
      "latitude_deg": 3.8159667609104255e-05,
      "longitude_deg": 125.59926916925362,
      "height_km": 482.91871061181786,
      "semi_major_axis_km": 6861.19584269794,
      "eccentricity": 0.0001943,
      "inclination_deg": 43.0038,
      "raan_deg": 312.2484,
      "arg_perigee_deg": 266.4593,
      "mean_anomaly_deg": 93.6037,
      "mean_motion_rev_day": 15.27576745
    },
    {
      "epoch": "2026-03-29T23:57:00.766656Z",
      "apogee_km": 484.39204166213403,
      "perigee_km": 481.7256437337455,
      "latitude_deg": 3.8944352799883625e-05,
      "longitude_deg": 125.59926639610615,
      "height_km": 482.91871484864816,
      "semi_major_axis_km": 6861.19584269794,
      "eccentricity": 0.00019431,
      "inclination_deg": 43.0038,
      "raan_deg": 312.2484,
      "arg_perigee_deg": 266.4593,
      "mean_anomaly_deg": 93.6037,
      "mean_motion_rev_day": 15.27576745
    },
    {
      "epoch": "2026-03-30T14:04:24.967776Z",
      "apogee_km": 484.5410416192317,
      "perigee_km": 481.55642582506334,
      "latitude_deg": -5.1776626845199335e-06,
      "longitude_deg": -90.15554495659698,
      "height_km": 482.9965451034944,
      "semi_major_axis_km": 6861.185733722147,
      "eccentricity": 0.0002175,
      "inclination_deg": 43.0038,
      "raan_deg": 308.9245,
      "arg_perigee_deg": 263.4542,
      "mean_anomaly_deg": 96.6062,
      "mean_motion_rev_day": 15.27580121
    },
    {
      "epoch": "2026-03-30T21:55:12.558720Z",
      "apogee_km": 484.46851607747067,
      "perigee_km": 481.68478447528105,
      "latitude_deg": 4.848766509783289e-06,
      "longitude_deg": 149.97742402940818,
      "height_km": 482.6840394779037,
      "semi_major_axis_km": 6861.213650276376,
      "eccentricity": 0.00020286,
      "inclination_deg": 43.0051,
      "raan_deg": 307.078,
      "arg_perigee_deg": 277.0316,
      "mean_anomaly_deg": 83.0305,
      "mean_motion_rev_day": 15.27570798
    },
    {
      "epoch": "2026-03-31T21:27:32.590944Z",
      "apogee_km": 484.0677396716392,
      "perigee_km": 481.9764583782562,
      "latitude_deg": -1.3810159302838405e-06,
      "longitude_deg": 150.38664295841417,
      "height_km": 482.8026933133867,
      "semi_major_axis_km": 6861.159099024948,
      "eccentricity": 0.0001524,
      "inclination_deg": 43.0036,
      "raan_deg": 301.5374,
      "arg_perigee_deg": 269.8142,
      "mean_anomaly_deg": 90.2535,
      "mean_motion_rev_day": 15.27589016
    },
    {
      "epoch": "2026-04-01T20:59:53.254752Z",
      "apogee_km": 483.96391618802954,
      "perigee_km": 482.1113990304748,
      "latitude_deg": -6.9810696538342104e-06,
      "longitude_deg": 150.793823625365,
      "height_km": 482.7715579297538,
      "semi_major_axis_km": 6861.174657609252,
      "eccentricity": 0.000135,
      "inclination_deg": 43.0028,
      "raan_deg": 295.9974,
      "arg_perigee_deg": 272.6656,
      "mean_anomaly_deg": 87.4041,
      "mean_motion_rev_day": 15.2758382
    },
    {
      "epoch": "2026-04-02T20:32:14.296992Z",
      "apogee_km": 484.0855984163445,
      "perigee_km": 482.01763616709286,
      "latitude_deg": -3.7748899075321644e-07,
      "longitude_deg": 151.20163571270356,
      "height_km": 482.9871043513318,
      "semi_major_axis_km": 6861.188617291718,
      "eccentricity": 0.0001507,
      "inclination_deg": 43.0017,
      "raan_deg": 290.4596,
      "arg_perigee_deg": 261.1798,
      "mean_anomaly_deg": 98.8883,
      "mean_motion_rev_day": 15.27579158
    },
    {
      "epoch": "2026-04-02T20:32:14.297856Z",
      "apogee_km": 484.0855984163445,
      "perigee_km": 482.01763616709286,
      "latitude_deg": -3.7748899237561805e-07,
      "longitude_deg": 151.2016321028465,
      "height_km": 482.98710435133387,
      "semi_major_axis_km": 6861.188617291718,
      "eccentricity": 0.0001507,
      "inclination_deg": 43.0017,
      "raan_deg": 290.4596,
      "arg_perigee_deg": 261.1798,
      "mean_anomaly_deg": 98.8883,
      "mean_motion_rev_day": 15.27579158
    },
    {
      "epoch": "2026-04-03T12:13:48.280512Z",
      "apogee_km": 483.7523732749105,
      "perigee_km": 482.3580417944959,
      "latitude_deg": -2.0369650778651417e-05,
      "longitude_deg": -88.52936283807912,
      "height_km": 482.9264612722947,
      "semi_major_axis_km": 6861.192207534703,
      "eccentricity": 0.00010161,
      "inclination_deg": 43.0027,
      "raan_deg": 286.7647,
      "arg_perigee_deg": 262.2015,
      "mean_anomaly_deg": 97.8721,
      "mean_motion_rev_day": 15.27577959
    },
    {
      "epoch": "2026-04-04T19:36:57.063168Z",
      "apogee_km": 484.36522525360215,
      "perigee_km": 481.7579697865449,
      "latitude_deg": -4.299854842138228e-06,
      "longitude_deg": 152.01039119001123,
      "height_km": 482.58371258619144,
      "semi_major_axis_km": 6861.198597520073,
      "eccentricity": 0.00019,
      "inclination_deg": 43.0018,
      "raan_deg": 279.38,
      "arg_perigee_deg": 281.2889,
      "mean_anomaly_deg": 78.7749,
      "mean_motion_rev_day": 15.27575825
    },
    {
      "epoch": "2026-04-05T12:52:39.898560Z",
      "apogee_km": 484.4038866121191,
      "perigee_km": 481.651324595643,
      "latitude_deg": -2.07503119686759e-05,
      "longitude_deg": -111.69072927565632,
      "height_km": 482.8949320638191,
      "semi_major_axis_km": 6861.164605603881,
      "eccentricity": 0.00020059,
      "inclination_deg": 43.0036,
      "raan_deg": 275.3163,
      "arg_perigee_deg": 266.2605,
      "mean_anomaly_deg": 93.8017,
      "mean_motion_rev_day": 15.27587177
    },
    {
      "epoch": "2026-04-05T19:09:17.321760Z",
      "apogee_km": 484.3038431294244,
      "perigee_km": 481.73228221193676,
      "latitude_deg": -1.495424151577135e-05,
      "longitude_deg": 152.42065666003018,
      "height_km": 482.56924552877797,
      "semi_major_axis_km": 6861.15506267068,
      "eccentricity": 0.0001874,
      "inclination_deg": 43.0034,
      "raan_deg": 273.8414,
      "arg_perigee_deg": 280.1363,
      "mean_anomaly_deg": 79.9277,
      "mean_motion_rev_day": 15.27590364
    },
    {
      "epoch": "2026-04-05T19:09:17.322624Z",
      "apogee_km": 484.30411458074013,
      "perigee_km": 481.7320047719686,
      "latitude_deg": -1.1860648405390517e-05,
      "longitude_deg": 152.42065634892418,
      "height_km": 482.5691942417134,
      "semi_major_axis_km": 6861.1550596763545,
      "eccentricity": 0.00018744,
      "inclination_deg": 43.0034,
      "raan_deg": 273.8414,
      "arg_perigee_deg": 280.1363,
      "mean_anomaly_deg": 79.9277,
      "mean_motion_rev_day": 15.27590365
    },
    {
      "epoch": "2026-04-07T10:23:11.958720Z",
      "apogee_km": 484.0974770078028,
      "perigee_km": 482.0743768155735,
      "latitude_deg": 2.0592807193739342e-05,
      "longitude_deg": -86.90065811122797,
      "height_km": 482.8804169146222,
      "semi_major_axis_km": 6861.222926911688,
      "eccentricity": 0.00014743,
      "inclination_deg": 43.0014,
      "raan_deg": 264.6089,
      "arg_perigee_deg": 269.0045,
      "mean_anomaly_deg": 91.0638,
      "mean_motion_rev_day": 15.275677
    },
    {
      "epoch": "2026-04-07T18:13:59.069280Z",
      "apogee_km": 483.93308601366243,
      "perigee_km": 482.243852303156,
      "latitude_deg": -1.2032469547004642e-05,
      "longitude_deg": 153.2348711371002,
      "height_km": 482.9909714111523,
      "semi_major_axis_km": 6861.225469158409,
      "eccentricity": 0.0001231,
      "inclination_deg": 43.0034,
      "raan_deg": 262.763,
      "arg_perigee_deg": 261.4487,
      "mean_anomaly_deg": 98.6225,
      "mean_motion_rev_day": 15.27566851
    },
    {
      "epoch": "2026-04-08T11:29:42.829152Z",
      "apogee_km": 484.0188284663427,
      "perigee_km": 482.12952535666864,
      "latitude_deg": 1.054334398594152e-05,
      "longitude_deg": -110.46937130908633,
      "height_km": 482.8572374127688,
      "semi_major_axis_km": 6861.211176911505,
      "eccentricity": 0.00013768,
      "inclination_deg": 43.0012,
      "raan_deg": 258.7,
      "arg_perigee_deg": 269.6212,
      "mean_anomaly_deg": 90.4482,
      "mean_motion_rev_day": 15.27571624
    },
    {
      "epoch": "2026-04-09T17:18:40.679424Z",
      "apogee_km": 484.0041137713033,
      "perigee_km": 482.05128907398466,
      "latitude_deg": 6.32176909259934e-06,
      "longitude_deg": 154.04947521772726,
      "height_km": 482.8693366098703,
      "semi_major_axis_km": 6861.164701422644,
      "eccentricity": 0.00014231,
      "inclination_deg": 43.0008,
      "raan_deg": 251.6844,
      "arg_perigee_deg": 266.1925,
      "mean_anomaly_deg": 93.8764,
      "mean_motion_rev_day": 15.27587145
    },
    {
      "epoch": "2026-04-11T17:57:32.351040Z",
      "apogee_km": 484.15860769584833,
      "perigee_km": 482.0179054158016,
      "latitude_deg": 5.159945962617047e-06,
      "longitude_deg": 130.88708172242696,
      "height_km": 482.8381581641084,
      "semi_major_axis_km": 6861.225256555825,
      "eccentricity": 0.000156,
      "inclination_deg": 43.0028,
      "raan_deg": 240.2352,
      "arg_perigee_deg": 271.4587,
      "mean_anomaly_deg": 88.6086,
      "mean_motion_rev_day": 15.27566922
    },
    {
      "epoch": "2026-04-13T01:20:40.122816Z",
      "apogee_km": 484.04209470548176,
      "perigee_km": 482.0990007279688,
      "latitude_deg": 4.088572854017412e-05,
      "longitude_deg": 11.433580191627692,
      "height_km": 482.8749677848259,
      "semi_major_axis_km": 6861.207547716725,
      "eccentricity": 0.0001416,
      "inclination_deg": 43.0001,
      "raan_deg": 232.853,
      "arg_perigee_deg": 268.3661,
      "mean_anomaly_deg": 91.7029,
      "mean_motion_rev_day": 15.27572836
    },
    {
      "epoch": "2026-04-14T15:00:25.050816Z",
      "apogee_km": 484.02013355925646,
      "perigee_km": 482.0784178432323,
      "latitude_deg": 6.817468453323939e-06,
      "longitude_deg": 156.0859022664845,
      "height_km": 482.62702463036914,
      "semi_major_axis_km": 6861.186275701244,
      "eccentricity": 0.0001415,
      "inclination_deg": 43.0025,
      "raan_deg": 223.9893,
      "arg_perigee_deg": 281.8428,
      "mean_anomaly_deg": 78.2265,
      "mean_motion_rev_day": 15.2757994
    }
  ]
}